[{"OBJECT_NAME":"STARLINK-1279","OBJECT_ID":"2020-019A","EPOCH":"2026-03-09T05:57:01.126944","MEAN_MOTION":15.57042246,"ECCENTRICITY":7.012e-5,"INCLINATION":53.0416,"RA_OF_ASC_NODE":100.83,"ARG_OF_PERICENTER":120.8921,"MEAN_ANOMALY":239.2159,"EPHEMERIS_TYPE":0,"CLASSIFICATION_TYPE":"U","NORAD_CAT_ID":45360,"ELEMENT_SET_NO":999,"REV_AT_EPOCH":33060,"BSTAR":0.00083008269,"MEAN_MOTION_DOT":0.00061081,"MEAN_MOTION_DDOT":0},{"OBJECT_NAME":"STARLINK-1666","OBJECT_ID":"2020-062AJ","EPOCH":"2026-03-10T00:00:02.999808","MEAN_MOTION":15.58154257,"ECCENTRICITY":0.00060115,"INCLINATION":53.0479,"RA_OF_ASC_NODE":332.8537,"ARG_OF_PERICENTER":131.9659,"MEAN_ANOMALY":204.3284,"EPHEMERIS_TYPE":0,"CLASSIFICATION_TYPE":"U","NORAD_CAT_ID":46357,"ELEMENT_SET_NO":999,"REV_AT_EPOCH":557,"BSTAR":0.0017911764,"MEAN_MOTION_DOT":0.00139472,"MEAN_MOTION_DDOT":0}]
